{"type":"Feature","geometry":{"type":"MultiPolygon","coordinates":[[[[73.5,39.4],[75.0,40.3],[76.0,40.9],[78.0,41.0],[80.0,42.0],[80.2,43.0],[80.3,44.0],[80.0,45.0],[81.0,45.2],[82.5,45.5],[83.5,47.0],[85.0,48.0],[87.0,49.2],[88.0,48.5],[90.0,47.5],[91.0,46.5],[93.5,45.0],[95.0,44.5],[96.5,43.0],[97.5,42.5],[99.0,42.0],[100.0,42.5],[101.0,42.0],[102.0,42.0],[104.0,41.5],[105.0,41.5],[106.5,41.0],[108.0,42.0],[109.5,42.5],[111.0,43.5],[111.5,44.5],[112.0,45.0],[114.0,44.5],[115.5,45.5],[117.0,46.5],[119.0,46.5],[119.5,47.0],[119.5,49.5],[120.0,50.0],[121.0,50.5],[122.0,50.5],[123.5,50.0],[124.5,49.5],[125.5,49.0],[126.0,48.5],[127.5,49.5],[129.5,49.5],[130.5,48.5],[131.0,47.5],[133.5,48.0],[134.5,48.5],[135.0,48.0],[135.5,47.0],[134.0,46.5],[133.0,45.5],[131.0,45.0],[131.5,44.0],[130.5,43.0],[130.0,42.5],[129.5,41.5],[128.5,41.0],[128.0,40.0],[127.5,39.5],[126.0,39.5],[125.0,40.5],[124.5,40.0],[124.0,39.5],[123.0,39.0],[122.5,39.0],[122.0,38.5],[121.5,38.5],[121.0,38.0],[121.0,37.0],[121.5,36.5],[122.0,36.0],[122.5,36.5],[122.5,37.0],[123.0,37.0],[123.0,37.5],[122.0,37.5],[121.5,37.5],[120.5,37.0],[120.0,36.5],[119.5,36.0],[119.5,35.5],[120.0,35.0],[120.5,34.5],[121.0,34.0],[121.5,33.5],[122.0,33.0],[122.0,32.5],[121.5,32.0],[121.0,31.5],[121.5,31.0],[122.0,30.5],[122.5,30.0],[121.5,29.0],[121.0,28.5],[121.5,28.0],[121.5,27.5],[121.0,27.0],[121.5,26.5],[121.5,25.5],[120.5,25.0],[120.0,24.5],[120.5,23.5],[121.0,23.0],[121.5,22.5],[120.5,22.0],[120.0,22.0],[119.5,22.0],[119.0,21.5],[118.5,21.5],[118.0,21.5],[117.5,21.5],[117.0,21.5],[116.5,22.0],[116.0,22.5],[115.5,22.5],[115.0,22.5],[114.5,22.5],[114.0,22.5],[113.5,22.0],[113.0,22.0],[112.5,21.5],[111.5,21.5],[111.0,21.0],[110.5,21.0],[110.0,20.5],[109.5,21.0],[109.0,21.0],[108.5,21.5],[108.0,21.5],[107.5,21.5],[107.0,21.5],[106.5,22.0],[106.0,22.5],[105.5,22.5],[105.0,23.0],[104.5,22.5],[103.5,22.5],[103.0,22.5],[102.5,22.5],[102.0,22.5],[101.5,22.0],[101.0,21.5],[100.5,21.5],[100.0,21.5],[99.5,22.0],[99.0,22.5],[98.5,23.5],[98.0,24.0],[97.5,24.0],[97.5,25.0],[98.0,25.5],[98.5,26.0],[98.5,27.0],[98.0,28.0],[97.5,28.5],[97.0,28.0],[96.0,28.5],[95.0,29.0],[94.0,29.0],[93.0,28.5],[92.0,27.5],[91.5,28.0],[90.5,28.0],[89.0,27.5],[88.0,28.0],[87.5,28.0],[87.0,27.5],[86.5,28.0],[85.5,28.5],[85.0,28.5],[84.0,28.5],[83.0,29.0],[82.0,29.5],[81.0,30.0],[80.0,30.5],[79.0,31.5],[78.5,32.5],[78.0,33.5],[77.0,34.0],[76.5,35.0],[76.0,35.5],[75.5,36.5],[75.0,37.0],[74.5,37.5],[74.0,38.5],[73.5,39.4]]],[[[108.5,20.2],[111.0,20.2],[111.0,18.0],[108.5,18.0],[108.5,20.2]]]]},"properties":{"name":"China including Taiwan and Hainan Island"}}